OBJECT_NAME,OBJECT_ID,EPOCH,MEAN_MOTION,ECCENTRICITY,INCLINATION,RA_OF_ASC_NODE,ARG_OF_PERICENTER,MEAN_ANOMALY,EPHEMERIS_TYPE,CLASSIFICATION_TYPE,NORAD_CAT_ID,ELEMENT_SET_NO,REV_AT_EPOCH,BSTAR,MEAN_MOTION_DOT,MEAN_MOTION_DDOT
SL-12 R/B(2),1985-042D,2026-07-11T00:01:11.432928,14.22010413,.0037233,71.1063,187.2032,292.3342,87.2598,0,U,15772,999,13192,.15681E-4,-.13E-6,0
SL-14 R/B,1985-069B,2026-07-11T04:47:49.118784,14.86533499,.0019805,82.5266,268.7838,139.7516,220.5172,0,U,15945,999,19118,.23513E-4,.234E-5,0
SL-16 R/B,1985-097B,2026-07-11T03:02:25.658304,14.16612290,.0005477,71.0011,240.6787,59.7402,321.7686,0,U,16182,999,10471,-.41841E-4,-.131E-5,0
SL-14 R/B,1986-006B,2026-07-10T08:02:24.370656,14.86966017,.00751178,82.5280,144.3305,225.1886,134.3210,0,U,16496,999,16743,.2948639E-4,.304E-5,0
COSMOS 1743,1986-034A,2026-07-10T07:29:26.822400,15.69223519,.000521,82.5274,304.1058,192.4255,167.6879,0,U,16719,999,19941,.38200588E-3,.44608E-3,0
SL-14 R/B,1986-046B,2026-07-10T09:20:09.117024,14.85688335,.00230947,82.4835,324.2512,178.7399,181.3880,0,U,16792,999,14462,.31307736E-4,.297E-5,0
SL-14 R/B,1986-055B,2026-07-11T00:07:33.511008,14.85738500,.0017355,82.5198,10.7361,285.4694,235.5486,0,U,16882,999,13767,.25209E-4,.243E-5,0
AJISAI (EGS),1986-061A,2026-07-11T05:36:18.281088,12.44516678,.00111,50.0103,73.4534,241.7797,214.6292,0,U,16908,999,48338,-.42447E-4,-.103E-5,0
SL-14 R/B,1987-024B,2026-07-10T15:31:49.260288,14.86229611,.0017441,82.5293,337.1983,209.3156,150.7084,0,U,17567,999,10639,.27437E-4,.266E-5,0
COSMOS 1833,1987-027A,2026-07-10T19:44:41.933184,14.13065191,.0023938,70.9211,67.1908,15.7836,344.4026,0,U,17589,999,2771,.9279E-4,.126E-5,0
SL-16 R/B,1987-027B,2026-07-10T12:12:46.773216,14.17173452,.0007136,71.0028,17.6821,286.8557,73.1784,0,U,17590,999,3274,-.67982E-4,-.185E-5,0
SL-14 R/B,1987-038B,2026-07-10T10:27:45.174528,14.85459504,.00206701,82.5008,181.1726,116.8241,243.5092,0,U,17912,999,9745,.28622923E-4,.272E-5,0
COSMOS 1844,1987-041A,2026-07-10T22:30:13.467168,14.14578824,.0031606,70.8995,134.2097,201.3138,158.6669,0,U,17973,999,2101,.12998E-3,.202E-5,0
SL-14 R/B,1987-055B,2026-07-11T01:33:05.855040,14.85725503,.001971,82.4974,232.7198,329.4692,30.5375,0,U,18153,999,8825,.21768E-4,.214E-5,0
COSMOS 1867,1987-060A,2026-07-10T07:50:55.887072,14.31518246,.00170337,65.0120,323.2532,282.0522,77.8653,0,U,18187,999,3749,.9383017E-5,-.75E-6,0
SL-14 R/B,1988-001B,2026-07-11T03:15:26.399808,14.85625168,.0017793,82.5125,79.2427,185.2078,174.8957,0,U,18749,999,6035,.20226E-4,.2E-5,0
COSMOS 1933,1988-020A,2026-07-10T21:17:58.240032,15.18872247,.0005726,82.5137,128.9637,118.6251,241.5560,0,U,18958,999,6892,.10744E-3,.2271E-4,0
SL-3 R/B,1988-032B,2026-07-11T03:00:39.064896,15.21012789,.0026113,97.5267,175.1460,159.4176,200.8117,0,U,19046,999,7086,.11431E-3,.2486E-4,0
SL-16 R/B,1988-039B,2026-07-10T08:57:36.961344,14.19631888,.00208562,71.0135,169.1303,157.2540,202.9514,0,U,19120,999,97579,-.4715608E-4,-.148E-5,0
COSMOS 1953,1988-050A,2026-07-11T00:27:17.258400,15.30299824,.0011831,82.5064,33.9945,53.3984,306.8343,0,U,19210,999,5663,.15296E-3,.4525E-4,0
SL-8 R/B,1988-053B,2026-07-11T03:00:18.810144,14.38976881,.001959,74.0461,244.9319,31.7514,5.8839,0,U,19257,999,99435,.43946E-4,.11E-5,0
COSMOS 1975,1988-093A,2026-07-10T16:58:01.247232,15.29628088,.001257,82.5192,354.0365,96.2487,264.0186,0,U,19573,999,3820,.14872E-3,.4312E-4,0
SL-14 R/B,1988-093B,2026-07-11T05:49:21.844416,14.85758633,.0020361,82.5316,286.0623,353.6820,36.0224,0,U,19574,999,1936,.21401E-4,.211E-5,0
SL-16 R/B,1988-102B,2026-07-11T03:53:31.828416,14.16167753,.0014527,70.9985,251.6935,191.8795,168.1988,0,U,19650,999,94437,-.10339E-3,-.253E-5,0
INTERCOSMOS 24,1989-080A,2026-07-11T00:01:22.352160,12.59690467,.1187426,82.6047,24.1453,6.6800,354.8636,0,U,20261,999,68232,.77414E-4,.279E-5,0
SL-14 R/B,1989-080C,2026-07-11T03:53:43.615104,12.50577970,.1228556,82.5938,93.9038,262.5206,83.4990,0,U,20262,999,67558,.14486E-4,.5E-6,0
DELTA 1 R/B,1989-089B,2026-07-11T00:21:18.282816,14.50746183,.0070641,97.0634,19.7598,92.8908,268.0377,0,U,20323,999,91361,.47952E-4,.16E-5,0
ARIANE 40 R/B,1990-005H,2026-07-11T02:06:05.440608,14.39939548,.000998,98.2947,248.9590,186.0758,174.0311,0,U,20443,999,91056,.48335E-4,.11E-5,0
DELTA 2 R/B(1),1990-008B,2026-07-11T00:34:04.552320,15.72953494,.0060888,35.6001,75.7228,336.6786,23.1198,0,U,20453,999,94545,.4942E-3,.79035E-3,0
COSMOS 2058,1990-010A,2026-07-10T18:14:40.542144,15.12143203,.0007801,82.4673,286.1070,268.7589,91.2748,0,U,20465,999,96083,.85929E-4,.1511E-4,0
SL-14 R/B,1990-010B,2026-07-10T16:55:44.995296,14.83661403,.0018214,82.5032,151.8584,253.2458,106.6759,0,U,20466,999,94672,.25588E-4,.235E-5,0
