SL-12 R/B(2)            
1 15772U 85042D   26192.00082677 -.00000013  00000+0  15681-4 0  9990
2 15772  71.1063 187.2032 0037233 292.3342  87.2598 14.22010413131921
SL-14 R/B               
1 15945U 85069B   26192.19987406  .00000234  00000+0  23513-4 0  9992
2 15945  82.5266 268.7838 0019805 139.7516 220.5172 14.86533499191183
SL-16 R/B               
1 16182U 85097B   26192.12668586 -.00000131  00000+0 -41841-4 0  9997
2 16182  71.0011 240.6787 0005477  59.7402 321.7686 14.16612290104712
SL-14 R/B               
1 16496U 86006B   26191.33500429  .00000304  00000+0  29486-4 0  9990
2 16496  82.5280 144.3305 0075117 225.1886 134.3210 14.86966017167439
COSMOS 1743             
1 16719U 86034A   26191.31211600  .00044608  00000+0  38201-3 0  9996
2 16719  82.5274 304.1058 0005210 192.4255 167.6879 15.69223519199412
SL-14 R/B               
1 16792U 86046B   26191.38899441  .00000297  00000+0  31308-4 0  9990
2 16792  82.4835 324.2512 0023094 178.7399 181.3880 14.85688335144625
SL-14 R/B               
1 16882U 86055B   26192.00524897  .00000243  00000+0  25209-4 0  9994
2 16882  82.5198  10.7361 0017355 285.4694 235.5486 14.85738500137675
AJISAI (EGS)            
1 16908U 86061A   26192.23354492 -.00000103  00000+0 -42447-4 0  9997
2 16908  50.0103  73.4534 0011100 241.7797 214.6292 12.44516678483387
SL-14 R/B               
1 17567U 87024B   26191.64709792  .00000266  00000+0  27437-4 0  9990
2 17567  82.5293 337.1983 0017441 209.3156 150.7084 14.86229611106398
COSMOS 1833             
1 17589U 87027A   26191.82270756  .00000126  00000+0  92790-4 0  9999
2 17589  70.9211  67.1908 0023938  15.7836 344.4026 14.13065191 27719
SL-16 R/B               
1 17590U 87027B   26191.50887469 -.00000185  00000+0 -67982-4 0  9993
2 17590  71.0028  17.6821 0007136 286.8557  73.1784 14.17173452 32746
SL-14 R/B               
1 17912U 87038B   26191.43593952  .00000272  00000+0  28623-4 0  9990
2 17912  82.5008 181.1726 0020670 116.8241 243.5092 14.85459504 97454
COSMOS 1844             
1 17973U 87041A   26191.93765587  .00000202  00000+0  12998-3 0  9991
2 17973  70.8995 134.2097 0031606 201.3138 158.6669 14.14578824 21016
SL-14 R/B               
1 18153U 87055B   26192.06465110  .00000214  00000+0  21768-4 0  9990
2 18153  82.4974 232.7198 0019710 329.4692  30.5375 14.85725503 88255
COSMOS 1867             
1 18187U 87060A   26191.32703573 -.00000075  00000+0  93830-5 0  9995
2 18187  65.0120 323.2532 0017033 282.0522  77.8653 14.31518246 37490
SL-14 R/B               
1 18749U 88001B   26192.13572222  .00000200  00000+0  20226-4 0  9997
2 18749  82.5125  79.2427 0017793 185.2078 174.8957 14.85625168 60354
COSMOS 1933             
1 18958U 88020A   26191.88747963  .00002271  00000+0  10744-3 0  9990
2 18958  82.5137 128.9637 0005726 118.6251 241.5560 15.18872247 68922
SL-3 R/B                
1 19046U 88032B   26192.12545214  .00002486  00000+0  11431-3 0  9997
2 19046  97.5267 175.1460 0026113 159.4176 200.8117 15.21012789 70864
SL-16 R/B               
1 19120U 88039B   26191.37334446 -.00000148  00000+0 -47156-4 0  9995
2 19120  71.0135 169.1303 0020856 157.2540 202.9514 14.19631888975799
COSMOS 1953             
1 19210U 88050A   26192.01894975  .00004525  00000+0  15296-3 0  9998
2 19210  82.5064  33.9945 0011831  53.3984 306.8343 15.30299824 56639
SL-8 R/B                
1 19257U 88053B   26192.12521771  .00000110  00000+0  43946-4 0  9995
2 19257  74.0461 244.9319 0019590  31.7514   5.8839 14.38976881994353
COSMOS 1975             
1 19573U 88093A   26191.70695888  .00004312  00000+0  14872-3 0  9997
2 19573  82.5192 354.0365 0012570  96.2487 264.0186 15.29628088 38200
SL-14 R/B               
1 19574U 88093B   26192.24261394  .00000211  00000+0  21401-4 0  9990
2 19574  82.5316 286.0623 0020361 353.6820  36.0224 14.85758633 19365
SL-16 R/B               
1 19650U 88102B   26192.16217394 -.00000253  00000+0 -10339-3 0  9993
2 19650  70.9985 251.6935 0014527 191.8795 168.1988 14.16167753944370
INTERCOSMOS 24          
1 20261U 89080A   26192.00095315  .00000279  00000+0  77414-4 0  9993
2 20261  82.6047  24.1453 1187426   6.6800 354.8636 12.59690467682323
SL-14 R/B               
1 20262U 89080C   26192.16231036  .00000050  00000+0  14486-4 0  9990
2 20262  82.5938  93.9038 1228556 262.5206  83.4990 12.50577970675580
DELTA 1 R/B             
1 20323U 89089B   26192.01479494  .00000160  00000+0  47952-4 0  9999
2 20323  97.0634  19.7598 0070641  92.8908 268.0377 14.50746183913616
ARIANE 40 R/B           
1 20443U 90005H   26192.08756297  .00000110  00000+0  48335-4 0  9999
2 20443  98.2947 248.9590 0009980 186.0758 174.0311 14.39939548910565
DELTA 2 R/B(1)          
1 20453U 90008B   26192.02366380  .00079035  00000+0  49420-3 0  9994
2 20453  35.6001  75.7228 0060888 336.6786  23.1198 15.72953494945451
COSMOS 2058             
1 20465U 90010A   26191.76019146  .00001511  00000+0  85929-4 0  9994
2 20465  82.4673 286.1070 0007801 268.7589  91.2748 15.12143203960833
SL-14 R/B               
1 20466U 90010B   26191.70538189  .00000235  00000+0  25588-4 0  9999
2 20466  82.5032 151.8584 0018214 253.2458 106.6759 14.83661403946725
